[
    {
        "Altitude(m)": 570986.9152217375,
        "Argument of Periapsis(deg)": 0.033114955553567506,
        "Eccentricity": 0.0,
        "Inclination(deg)": 53.0,
        "Latitude(deg)": -50.94374895454417,
        "Longitude(deg)": 48.4744164532344,
        "Mean Anomaly(deg)": -104.08743566211204,
        "RAAN(deg)": 264.9507168426401,
        "Satellite Name": "Starlink Shell 1 1178",
        "Satellite Number": 1178,
        "Semi-Major Axis(m)": 6931778.249405717,
        "Time(s)": 950
    },
    {
        "Altitude(m)": 571060.6995238494,
        "Argument of Periapsis(deg)": 0.03346353403307874,
        "Eccentricity": 0.0,
        "Inclination(deg)": 53.0,
        "Latitude(deg)": -51.13128578521073,
        "Longitude(deg)": 49.378369353198714,
        "Mean Anomaly(deg)": -103.4606044585553,
        "RAAN(deg)": 264.9501980725626,
        "Satellite Name": "Starlink Shell 1 1178",
        "Satellite Number": 1178,
        "Semi-Major Axis(m)": 6931778.249405717,
        "Time(s)": 960
    },
    {
        "Altitude(m)": 571131.3157728086,
        "Argument of Periapsis(deg)": 0.03381211251258998,
        "Eccentricity": 0.0,
        "Inclination(deg)": 53.0,
        "Latitude(deg)": -51.31111791259773,
        "Longitude(deg)": 50.28983718774914,
        "Mean Anomaly(deg)": -102.83377325499863,
        "RAAN(deg)": 264.94967930248515,
        "Satellite Name": "Starlink Shell 1 1178",
        "Satellite Number": 1178,
        "Semi-Major Axis(m)": 6931778.249405717,
        "Time(s)": 970
    },
    {
        "Altitude(m)": 571198.735827598,
        "Argument of Periapsis(deg)": 0.034160690992101214,
        "Eccentricity": 0.0,
        "Inclination(deg)": 53.0,
        "Latitude(deg)": -51.48313632614074,
        "Longitude(deg)": 51.208605565958145,
        "Mean Anomaly(deg)": -102.20694205144196,
        "RAAN(deg)": 264.94916053240763,
        "Satellite Name": "Starlink Shell 1 1178",
        "Satellite Number": 1178,
        "Semi-Major Axis(m)": 6931778.249405717,
        "Time(s)": 980
    },
    {
        "Altitude(m)": 571262.9328134492,
        "Argument of Periapsis(deg)": 0.034509269471612446,
        "Eccentricity": 0.0,
        "Inclination(deg)": 53.0,
        "Latitude(deg)": -51.64723485538753,
        "Longitude(deg)": 52.13444439903642,
        "Mean Anomaly(deg)": -101.58011084788524,
        "RAAN(deg)": 264.94864176233017,
        "Satellite Name": "Starlink Shell 1 1178",
        "Satellite Number": 1178,
        "Semi-Major Axis(m)": 6931778.249405717,
        "Time(s)": 990
    }
]